start=new Date('2022-02-01T00:00:00.000Z').valueOf();
sats=[{"MEAN_MOTION":"15.06394329","ECCENTRICITY":"0.00017230","EPOCH":"2022-01-31T13:46:56.822592","MEAN_ELEMENT_THEORY":"SGP4","INCLINATION":"53.0542","MEAN_MOTION_DOT":"0.00000686","OBJECT_TYPE":"PAYLOAD","COUNTRY_CODE":"US","CENTER_NAME":"EARTH","OBJECT_NAME":"STARLINK-1551","NORAD_CAT_ID":"46075","SITE":"AFETR","TLE_LINE2":"2 46075  53.0542 341.9219 0001723  65.9394 294.1775 15.06394329 83504","REF_FRAME":"TEME","ARG_OF_PERICENTER":"65.9394","OBJECT_ID":"2020-055BA","ELEMENT_SET_NO":"999","CLASSIFICATION_TYPE":"U","FILE":"3288814","MEAN_ANOMALY":"294.1775","LAUNCH_DATE":"2020-08-07","PERIAPSIS":"546.038","EPHEMERIS_TYPE":"0","TLE_LINE1":"1 46075U 20055BA  22031.57426878  .00000686  00000-0  64958-4 0  9995","REV_AT_EPOCH":"8350","BSTAR":"0.00006495800000","APOAPSIS":"548.424","SEMIMAJOR_AXIS":"6925.366","RCS_SIZE":"LARGE","RA_OF_ASC_NODE":"341.9219","MEAN_MOTION_DDOT":"0.0000000000000","PERIOD":"95.593","TIME_SYSTEM":"UTC","GP_ID":"195050986","DECAY_DATE":null},{"RCS_SIZE":"LARGE","MEAN_MOTION_DDOT":"0.0000000000000","RA_OF_ASC_NODE":"340.6217","PERIOD":"95.592","TIME_SYSTEM":"UTC","GP_ID":"195052237","DECAY_DATE":null,"PERIAPSIS":"546.001","LAUNCH_DATE":"2020-08-07","REV_AT_EPOCH":"8353","TLE_LINE1":"1 46076U 20055BB  22031.86545539 -.00001179  00000-0 -60284-4 0  9992","EPHEMERIS_TYPE":"0","APOAPSIS":"548.421","BSTAR":"-0.00006028400000","SEMIMAJOR_AXIS":"6925.346","REF_FRAME":"TEME","TLE_LINE2":"2 46076  53.0552 340.6217 0001747  54.5122 305.6030 15.06400824 83532","SITE":"AFETR","OBJECT_ID":"2020-055BB","ARG_OF_PERICENTER":"54.5122","FILE":"3288814","CLASSIFICATION_TYPE":"U","ELEMENT_SET_NO":"999","MEAN_ANOMALY":"305.6030","ECCENTRICITY":"0.00017470","MEAN_MOTION":"15.06400824","MEAN_MOTION_DOT":"-0.00001179","MEAN_ELEMENT_THEORY":"SGP4","INCLINATION":"53.0552","EPOCH":"2022-01-31T20:46:15.345696","COUNTRY_CODE":"US","OBJECT_TYPE":"PAYLOAD","NORAD_CAT_ID":"46076","OBJECT_NAME":"STARLINK-1552","CENTER_NAME":"EARTH"},{"MEAN_MOTION_DDOT":"0.0000000000000","RA_OF_ASC_NODE":"340.6859","RCS_SIZE":"LARGE","DECAY_DATE":null,"GP_ID":"195052485","PERIOD":"95.592","TIME_SYSTEM":"UTC","REV_AT_EPOCH":"8350","TLE_LINE1":"1 46077U 20055BC  22031.84702765  .00002243  00000-0  16941-3 0  9998","EPHEMERIS_TYPE":"0","PERIAPSIS":"545.872","LAUNCH_DATE":"2020-08-07","SEMIMAJOR_AXIS":"6925.336","APOAPSIS":"548.530","BSTAR":"0.00016941000000","OBJECT_ID":"2020-055BC","ARG_OF_PERICENTER":"63.5158","REF_FRAME":"TEME","TLE_LINE2":"2 46077  53.0545 340.6859 0001919  63.5158 296.6028 15.06403952 83505","SITE":"AFETR","MEAN_ANOMALY":"296.6028","FILE":"3288814","CLASSIFICATION_TYPE":"U","ELEMENT_SET_NO":"999","MEAN_MOTION_DOT":"0.00002243","MEAN_ELEMENT_THEORY":"SGP4","INCLINATION":"53.0545","EPOCH":"2022-01-31T20:19:43.188960","ECCENTRICITY":"0.00019190","MEAN_MOTION":"15.06403952","NORAD_CAT_ID":"46077","OBJECT_NAME":"STARLINK-1559","CENTER_NAME":"EARTH","COUNTRY_CODE":"US","OBJECT_TYPE":"PAYLOAD"},{"ECCENTRICITY":"0.00017030","MEAN_MOTION":"15.06409191","MEAN_MOTION_DOT":"0.00001412","MEAN_ELEMENT_THEORY":"SGP4","INCLINATION":"53.0561","EPOCH":"2022-01-31T21:23:23.910144","COUNTRY_CODE":"US","OBJECT_TYPE":"PAYLOAD","NORAD_CAT_ID":"46078","OBJECT_NAME":"STARLINK-1563","CENTER_NAME":"EARTH","REF_FRAME":"TEME","TLE_LINE2":"2 46078  53.0561 340.5075 0001703  66.2644 293.8524 15.06409191 83527","SITE":"AFETR","OBJECT_ID":"2020-055BD","ARG_OF_PERICENTER":"66.2644","FILE":"3288814","CLASSIFICATION_TYPE":"U","ELEMENT_SET_NO":"999","MEAN_ANOMALY":"293.8524","PERIAPSIS":"546.006","LAUNCH_DATE":"2020-08-07","REV_AT_EPOCH":"8352","TLE_LINE1":"1 46078U 20055BD  22031.89124896  .00001412  00000-0  11368-3 0  9992","EPHEMERIS_TYPE":"0","APOAPSIS":"548.365","BSTAR":"0.00011368000000","SEMIMAJOR_AXIS":"6925.320","RCS_SIZE":"LARGE","MEAN_MOTION_DDOT":"0.0000000000000","RA_OF_ASC_NODE":"340.5075","TIME_SYSTEM":"UTC","PERIOD":"95.592","GP_ID":"195050736","DECAY_DATE":null},{"PERIOD":"95.592","TIME_SYSTEM":"UTC","GP_ID":"195051486","DECAY_DATE":null,"RCS_SIZE":"LARGE","RA_OF_ASC_NODE":"340.5308","MEAN_MOTION_DDOT":"0.0000000000000","BSTAR":"0.00005248600000","APOAPSIS":"548.360","SEMIMAJOR_AXIS":"6925.361","LAUNCH_DATE":"2020-08-07","PERIAPSIS":"546.091","TLE_LINE1":"1 46079U 20055BE  22031.88388656  .00000500  00000-0  52486-4 0  9992","EPHEMERIS_TYPE":"0","REV_AT_EPOCH":"8355","ELEMENT_SET_NO":"999","FILE":"3288814","CLASSIFICATION_TYPE":"U","MEAN_ANOMALY":"294.4761","TLE_LINE2":"2 46079  53.0555 340.5308 0001638  65.6399 294.4761 15.06396047 83555","SITE":"AFETR","REF_FRAME":"TEME","OBJECT_ID":"2020-055BE","ARG_OF_PERICENTER":"65.6399","COUNTRY_CODE":"US","OBJECT_TYPE":"PAYLOAD","OBJECT_NAME":"STARLINK-1566","CENTER_NAME":"EARTH","NORAD_CAT_ID":"46079","MEAN_MOTION":"15.06396047","ECCENTRICITY":"0.00016380","INCLINATION":"53.0555","MEAN_ELEMENT_THEORY":"SGP4","EPOCH":"2022-01-31T21:12:47.798784","MEAN_MOTION_DOT":"0.00000500"},{"RA_OF_ASC_NODE":"341.6051","MEAN_MOTION_DDOT":"0.0000000000000","RCS_SIZE":"LARGE","GP_ID":"195051738","DECAY_DATE":null,"TIME_SYSTEM":"UTC","PERIOD":"95.592","EPHEMERIS_TYPE":"0","TLE_LINE1":"1 46080U 20055BF  22031.64430508  .00000710  00000-0  66540-4 0  9991","REV_AT_EPOCH":"8349","LAUNCH_DATE":"2020-08-07","PERIAPSIS":"546.059","SEMIMAJOR_AXIS":"6925.352","BSTAR":"0.00006654000000","APOAPSIS":"548.376","ARG_OF_PERICENTER":"65.1776","OBJECT_ID":"2020-055BF","SITE":"AFETR","TLE_LINE2":"2 46080  53.0544 341.6051 0001673  65.1776 294.9386 15.06398816 83492","REF_FRAME":"TEME","MEAN_ANOMALY":"294.9386","ELEMENT_SET_NO":"999","CLASSIFICATION_TYPE":"U","FILE":"3288814","EPOCH":"2022-01-31T15:27:47.958912","INCLINATION":"53.0544","MEAN_ELEMENT_THEORY":"SGP4","MEAN_MOTION_DOT":"0.00000710","MEAN_MOTION":"15.06398816","ECCENTRICITY":"0.00016730","CENTER_NAME":"EARTH","OBJECT_NAME":"STARLINK-1568","NORAD_CAT_ID":"46080","OBJECT_TYPE":"PAYLOAD","COUNTRY_CODE":"US"},{"EPOCH":"2022-01-31T21:02:10.666176","MEAN_ELEMENT_THEORY":"SGP4","INCLINATION":"53.0566","MEAN_MOTION_DOT":"-0.00000641","MEAN_MOTION":"15.06393778","ECCENTRICITY":"0.00015710","CENTER_NAME":"EARTH","OBJECT_NAME":"STARLINK-1571","NORAD_CAT_ID":"46081","OBJECT_TYPE":"PAYLOAD","COUNTRY_CODE":"US","ARG_OF_PERICENTER":"69.3578","OBJECT_ID":"2020-055BG","SITE":"AFETR","TLE_LINE2":"2 46081  53.0566 340.5617 0001571  69.3578 290.7579 15.06393778 83542","REF_FRAME":"TEME","MEAN_ANOMALY":"290.7579","ELEMENT_SET_NO":"999","CLASSIFICATION_TYPE":"U","FILE":"3288814","EPHEMERIS_TYPE":"0","TLE_LINE1":"1 46081U 20055BG  22031.87651234 -.00000641  00000-0 -24130-4 0  9992","REV_AT_EPOCH":"8354","LAUNCH_DATE":"2020-08-07","PERIAPSIS":"546.145","SEMIMAJOR_AXIS":"6925.368","BSTAR":"-0.00002413000000","APOAPSIS":"548.321","RA_OF_ASC_NODE":"340.5617","MEAN_MOTION_DDOT":"0.0000000000000","RCS_SIZE":"LARGE","DECAY_DATE":null,"GP_ID":"195051986","TIME_SYSTEM":"UTC","PERIOD":"95.593"},{"EPHEMERIS_TYPE":"0","TLE_LINE1":"1 46082U 20055BH  22031.56689183  .00000705  00000-0  66207-4 0  9993","REV_AT_EPOCH":"8350","LAUNCH_DATE":"2020-08-07","PERIAPSIS":"546.079","SEMIMAJOR_AXIS":"6925.355","BSTAR":"0.00006620700000","APOAPSIS":"548.361","RA_OF_ASC_NODE":"341.9463","MEAN_MOTION_DDOT":"0.0000000000000","RCS_SIZE":"LARGE","GP_ID":"195051236","DECAY_DATE":null,"PERIOD":"95.592","TIME_SYSTEM":"UTC","EPOCH":"2022-01-31T13:36:19.454112","MEAN_ELEMENT_THEORY":"SGP4","INCLINATION":"53.0551","MEAN_MOTION_DOT":"0.00000705","MEAN_MOTION":"15.06397882","ECCENTRICITY":"0.00016480","CENTER_NAME":"EARTH","OBJECT_NAME":"STARLINK-1578","NORAD_CAT_ID":"46082","OBJECT_TYPE":"PAYLOAD","COUNTRY_CODE":"US","ARG_OF_PERICENTER":"64.4212","OBJECT_ID":"2020-055BH","SITE":"AFETR","TLE_LINE2":"2 46082  53.0551 341.9463 0001648  64.4212 295.6947 15.06397882 83506","REF_FRAME":"TEME","MEAN_ANOMALY":"295.6947","ELEMENT_SET_NO":"999","CLASSIFICATION_TYPE":"U","FILE":"3288814"},{"DECAY_DATE":null,"GP_ID":"195050987","TIME_SYSTEM":"UTC","PERIOD":"95.592","RA_OF_ASC_NODE":"340.5907","MEAN_MOTION_DDOT":"0.0000000000000","RCS_SIZE":"LARGE","SEMIMAJOR_AXIS":"6925.340","BSTAR":"-0.00000870060000","APOAPSIS":"548.331","EPHEMERIS_TYPE":"0","TLE_LINE1":"1 46083U 20055BJ  22031.86914124 -.00000411  00000-0 -87006-5 0  9990","REV_AT_EPOCH":"8354","LAUNCH_DATE":"2020-08-07","PERIAPSIS":"546.079","MEAN_ANOMALY":"289.8787","ELEMENT_SET_NO":"999","CLASSIFICATION_TYPE":"U","FILE":"3288814","ARG_OF_PERICENTER":"70.2378","OBJECT_ID":"2020-055BJ","SITE":"AFETR","TLE_LINE2":"2 46083  53.0566 340.5907 0001626  70.2378 289.8787 15.06402712 83545","REF_FRAME":"TEME","CENTER_NAME":"EARTH","OBJECT_NAME":"STARLINK-1579","NORAD_CAT_ID":"46083","OBJECT_TYPE":"PAYLOAD","COUNTRY_CODE":"US","EPOCH":"2022-01-31T20:51:33.803136","MEAN_ELEMENT_THEORY":"SGP4","INCLINATION":"53.0566","MEAN_MOTION_DOT":"-0.00000411","MEAN_MOTION":"15.06402712","ECCENTRICITY":"0.00016260"},{"TIME_SYSTEM":"UTC","PERIOD":"95.593","DECAY_DATE":null,"GP_ID":"195052490","RCS_SIZE":"LARGE","MEAN_MOTION_DDOT":"0.0000000000000","RA_OF_ASC_NODE":"180.7513","APOAPSIS":"548.617","BSTAR":"-0.00004875900000","SEMIMAJOR_AXIS":"6925.368","PERIAPSIS":"545.849","LAUNCH_DATE":"2020-08-18","REV_AT_EPOCH":"8058","EPHEMERIS_TYPE":"0","TLE_LINE1":"1 46117U 20057A   22031.83597284 -.00001008  00000-0 -48759-4 0  9995","CLASSIFICATION_TYPE":"U","FILE":"3288814","ELEMENT_SET_NO":"999","MEAN_ANOMALY":"272.6353","REF_FRAME":"TEME","SITE":"AFETR","TLE_LINE2":"2 46117  53.0528 180.7513 0001998  87.4864 272.6353 15.06393598 80581","ARG_OF_PERICENTER":"87.4864","OBJECT_ID":"2020-057A","OBJECT_TYPE":"PAYLOAD","COUNTRY_CODE":"US","NORAD_CAT_ID":"46117","CENTER_NAME":"EARTH","OBJECT_NAME":"STARLINK-1585","ECCENTRICITY":"0.00019980","MEAN_MOTION":"15.06393598","MEAN_MOTION_DOT":"-0.00001008","EPOCH":"2022-01-31T20:03:48.053376","MEAN_ELEMENT_THEORY":"SGP4","INCLINATION":"53.0528"}];
